<?xml version="1.0" encoding="UTF-8"?>
<ndm xmlns:xsi="http://www.w3.org/2001/XMLSchema-instance" xsi:noNamespaceSchemaLocation="https://sanaregistry.org/r/ndmxml_unqualified/ndmxml-2.0.0-master-2.0.xsd">
<omm id="CCSDS_OMM_VERS" version="2.0">
<header><CREATION_DATE/><ORIGINATOR/></header><body><segment><metadata><OBJECT_NAME>EUTELSAT 21B</OBJECT_NAME><OBJECT_ID>2012-062B</OBJECT_ID><CENTER_NAME>EARTH</CENTER_NAME><REF_FRAME>TEME</REF_FRAME><TIME_SYSTEM>UTC</TIME_SYSTEM><MEAN_ELEMENT_THEORY>SGP4</MEAN_ELEMENT_THEORY></metadata><data><meanElements><EPOCH>2026-01-11T04:03:06.789312</EPOCH><MEAN_MOTION>1.00273034</MEAN_MOTION><ECCENTRICITY>.00031255</ECCENTRICITY><INCLINATION>0.0723</INCLINATION><RA_OF_ASC_NODE>25.5765</RA_OF_ASC_NODE><ARG_OF_PERICENTER>270.3187</ARG_OF_PERICENTER><MEAN_ANOMALY>257.1456</MEAN_ANOMALY></meanElements><tleParameters><EPHEMERIS_TYPE>0</EPHEMERIS_TYPE><CLASSIFICATION_TYPE>U</CLASSIFICATION_TYPE><NORAD_CAT_ID>38992</NORAD_CAT_ID><ELEMENT_SET_NO>999</ELEMENT_SET_NO><REV_AT_EPOCH>4825</REV_AT_EPOCH><BSTAR>0</BSTAR><MEAN_MOTION_DOT>.145E-5</MEAN_MOTION_DOT><MEAN_MOTION_DDOT>0</MEAN_MOTION_DDOT></tleParameters></data></segment></body></omm>
<omm id="CCSDS_OMM_VERS" version="2.0">
<header><CREATION_DATE/><ORIGINATOR/></header><body><segment><metadata><OBJECT_NAME>EUTELSAT 70B</OBJECT_NAME><OBJECT_ID>2012-069A</OBJECT_ID><CENTER_NAME>EARTH</CENTER_NAME><REF_FRAME>TEME</REF_FRAME><TIME_SYSTEM>UTC</TIME_SYSTEM><MEAN_ELEMENT_THEORY>SGP4</MEAN_ELEMENT_THEORY></metadata><data><meanElements><EPOCH>2026-01-11T06:22:21.863712</EPOCH><MEAN_MOTION>1.00270880</MEAN_MOTION><ECCENTRICITY>.00037825</ECCENTRICITY><INCLINATION>0.0616</INCLINATION><RA_OF_ASC_NODE>351.8431</RA_OF_ASC_NODE><ARG_OF_PERICENTER>275.8397</ARG_OF_PERICENTER><MEAN_ANOMALY>9.1710</MEAN_ANOMALY></meanElements><tleParameters><EPHEMERIS_TYPE>0</EPHEMERIS_TYPE><CLASSIFICATION_TYPE>U</CLASSIFICATION_TYPE><NORAD_CAT_ID>39020</NORAD_CAT_ID><ELEMENT_SET_NO>999</ELEMENT_SET_NO><REV_AT_EPOCH>4793</REV_AT_EPOCH><BSTAR>0</BSTAR><MEAN_MOTION_DOT>-.28E-6</MEAN_MOTION_DOT><MEAN_MOTION_DDOT>0</MEAN_MOTION_DDOT></tleParameters></data></segment></body></omm>
<omm id="CCSDS_OMM_VERS" version="2.0">
<header><CREATION_DATE/><ORIGINATOR/></header><body><segment><metadata><OBJECT_NAME>EUTELSAT 117 WEST A</OBJECT_NAME><OBJECT_ID>2013-012A</OBJECT_ID><CENTER_NAME>EARTH</CENTER_NAME><REF_FRAME>TEME</REF_FRAME><TIME_SYSTEM>UTC</TIME_SYSTEM><MEAN_ELEMENT_THEORY>SGP4</MEAN_ELEMENT_THEORY></metadata><data><meanElements><EPOCH>2026-01-11T05:44:25.374048</EPOCH><MEAN_MOTION>1.00271275</MEAN_MOTION><ECCENTRICITY>.00028662</ECCENTRICITY><INCLINATION>0.0366</INCLINATION><RA_OF_ASC_NODE>287.6777</RA_OF_ASC_NODE><ARG_OF_PERICENTER>9.8026</ARG_OF_PERICENTER><MEAN_ANOMALY>142.5525</MEAN_ANOMALY></meanElements><tleParameters><EPHEMERIS_TYPE>0</EPHEMERIS_TYPE><CLASSIFICATION_TYPE>U</CLASSIFICATION_TYPE><NORAD_CAT_ID>39122</NORAD_CAT_ID><ELEMENT_SET_NO>999</ELEMENT_SET_NO><REV_AT_EPOCH>4685</REV_AT_EPOCH><BSTAR>0</BSTAR><MEAN_MOTION_DOT>.2E-7</MEAN_MOTION_DOT><MEAN_MOTION_DDOT>0</MEAN_MOTION_DDOT></tleParameters></data></segment></body></omm>
<omm id="CCSDS_OMM_VERS" version="2.0">
<header><CREATION_DATE/><ORIGINATOR/></header><body><segment><metadata><OBJECT_NAME>EUTELSAT 7B</OBJECT_NAME><OBJECT_ID>2013-022A</OBJECT_ID><CENTER_NAME>EARTH</CENTER_NAME><REF_FRAME>TEME</REF_FRAME><TIME_SYSTEM>UTC</TIME_SYSTEM><MEAN_ELEMENT_THEORY>SGP4</MEAN_ELEMENT_THEORY></metadata><data><meanElements><EPOCH>2026-01-11T03:58:59.684448</EPOCH><MEAN_MOTION>1.00273327</MEAN_MOTION><ECCENTRICITY>.00054976</ECCENTRICITY><INCLINATION>0.0661</INCLINATION><RA_OF_ASC_NODE>10.9457</RA_OF_ASC_NODE><ARG_OF_PERICENTER>321.6695</ARG_OF_PERICENTER><MEAN_ANOMALY>204.7978</MEAN_ANOMALY></meanElements><tleParameters><EPHEMERIS_TYPE>0</EPHEMERIS_TYPE><CLASSIFICATION_TYPE>U</CLASSIFICATION_TYPE><NORAD_CAT_ID>39163</NORAD_CAT_ID><ELEMENT_SET_NO>999</ELEMENT_SET_NO><REV_AT_EPOCH>4637</REV_AT_EPOCH><BSTAR>0</BSTAR><MEAN_MOTION_DOT>.63E-6</MEAN_MOTION_DOT><MEAN_MOTION_DDOT>0</MEAN_MOTION_DDOT></tleParameters></data></segment></body></omm>
<omm id="CCSDS_OMM_VERS" version="2.0">
<header><CREATION_DATE/><ORIGINATOR/></header><body><segment><metadata><OBJECT_NAME>EXPRESS-AT1</OBJECT_NAME><OBJECT_ID>2014-010A</OBJECT_ID><CENTER_NAME>EARTH</CENTER_NAME><REF_FRAME>TEME</REF_FRAME><TIME_SYSTEM>UTC</TIME_SYSTEM><MEAN_ELEMENT_THEORY>SGP4</MEAN_ELEMENT_THEORY></metadata><data><meanElements><EPOCH>2026-01-11T05:55:41.008224</EPOCH><MEAN_MOTION>1.00275689</MEAN_MOTION><ECCENTRICITY>.00002239</ECCENTRICITY><INCLINATION>0.0308</INCLINATION><RA_OF_ASC_NODE>236.1482</RA_OF_ASC_NODE><ARG_OF_PERICENTER>67.6611</ARG_OF_PERICENTER><MEAN_ANOMALY>311.8736</MEAN_ANOMALY></meanElements><tleParameters><EPHEMERIS_TYPE>0</EPHEMERIS_TYPE><CLASSIFICATION_TYPE>U</CLASSIFICATION_TYPE><NORAD_CAT_ID>39612</NORAD_CAT_ID><ELEMENT_SET_NO>999</ELEMENT_SET_NO><REV_AT_EPOCH>4324</REV_AT_EPOCH><BSTAR>0</BSTAR><MEAN_MOTION_DOT>.93E-6</MEAN_MOTION_DOT><MEAN_MOTION_DDOT>0</MEAN_MOTION_DDOT></tleParameters></data></segment></body></omm>
<omm id="CCSDS_OMM_VERS" version="2.0">
<header><CREATION_DATE/><ORIGINATOR/></header><body><segment><metadata><OBJECT_NAME>EXPRESS-AT2</OBJECT_NAME><OBJECT_ID>2014-010B</OBJECT_ID><CENTER_NAME>EARTH</CENTER_NAME><REF_FRAME>TEME</REF_FRAME><TIME_SYSTEM>UTC</TIME_SYSTEM><MEAN_ELEMENT_THEORY>SGP4</MEAN_ELEMENT_THEORY></metadata><data><meanElements><EPOCH>2026-01-11T06:19:38.712864</EPOCH><MEAN_MOTION>1.00271320</MEAN_MOTION><ECCENTRICITY>.00009998</ECCENTRICITY><INCLINATION>0.0162</INCLINATION><RA_OF_ASC_NODE>8.4261</RA_OF_ASC_NODE><ARG_OF_PERICENTER>271.6795</ARG_OF_PERICENTER><MEAN_ANOMALY>65.4158</MEAN_ANOMALY></meanElements><tleParameters><EPHEMERIS_TYPE>0</EPHEMERIS_TYPE><CLASSIFICATION_TYPE>U</CLASSIFICATION_TYPE><NORAD_CAT_ID>39613</NORAD_CAT_ID><ELEMENT_SET_NO>999</ELEMENT_SET_NO><REV_AT_EPOCH>4292</REV_AT_EPOCH><BSTAR>0</BSTAR><MEAN_MOTION_DOT>-.266E-5</MEAN_MOTION_DOT><MEAN_MOTION_DDOT>0</MEAN_MOTION_DDOT></tleParameters></data></segment></body></omm>
<omm id="CCSDS_OMM_VERS" version="2.0">
<header><CREATION_DATE/><ORIGINATOR/></header><body><segment><metadata><OBJECT_NAME>EUTELSAT 3B</OBJECT_NAME><OBJECT_ID>2014-030A</OBJECT_ID><CENTER_NAME>EARTH</CENTER_NAME><REF_FRAME>TEME</REF_FRAME><TIME_SYSTEM>UTC</TIME_SYSTEM><MEAN_ELEMENT_THEORY>SGP4</MEAN_ELEMENT_THEORY></metadata><data><meanElements><EPOCH>2026-01-11T03:57:52.290720</EPOCH><MEAN_MOTION>1.00270689</MEAN_MOTION><ECCENTRICITY>.00035083</ECCENTRICITY><INCLINATION>0.0609</INCLINATION><RA_OF_ASC_NODE>352.4478</RA_OF_ASC_NODE><ARG_OF_PERICENTER>250.5012</ARG_OF_PERICENTER><MEAN_ANOMALY>290.2807</MEAN_ANOMALY></meanElements><tleParameters><EPHEMERIS_TYPE>0</EPHEMERIS_TYPE><CLASSIFICATION_TYPE>U</CLASSIFICATION_TYPE><NORAD_CAT_ID>39773</NORAD_CAT_ID><ELEMENT_SET_NO>999</ELEMENT_SET_NO><REV_AT_EPOCH>4249</REV_AT_EPOCH><BSTAR>0</BSTAR><MEAN_MOTION_DOT>.34E-6</MEAN_MOTION_DOT><MEAN_MOTION_DDOT>0</MEAN_MOTION_DDOT></tleParameters></data></segment></body></omm>
<omm id="CCSDS_OMM_VERS" version="2.0">
<header><CREATION_DATE/><ORIGINATOR/></header><body><segment><metadata><OBJECT_NAME>EUTELSAT 115 WEST B</OBJECT_NAME><OBJECT_ID>2015-010B</OBJECT_ID><CENTER_NAME>EARTH</CENTER_NAME><REF_FRAME>TEME</REF_FRAME><TIME_SYSTEM>UTC</TIME_SYSTEM><MEAN_ELEMENT_THEORY>SGP4</MEAN_ELEMENT_THEORY></metadata><data><meanElements><EPOCH>2026-01-11T05:41:47.031360</EPOCH><MEAN_MOTION>1.00272474</MEAN_MOTION><ECCENTRICITY>.00001958</ECCENTRICITY><INCLINATION>0.0042</INCLINATION><RA_OF_ASC_NODE>169.6780</RA_OF_ASC_NODE><ARG_OF_PERICENTER>52.4710</ARG_OF_PERICENTER><MEAN_ANOMALY>219.1396</MEAN_ANOMALY></meanElements><tleParameters><EPHEMERIS_TYPE>0</EPHEMERIS_TYPE><CLASSIFICATION_TYPE>U</CLASSIFICATION_TYPE><NORAD_CAT_ID>40425</NORAD_CAT_ID><ELEMENT_SET_NO>999</ELEMENT_SET_NO><REV_AT_EPOCH>3981</REV_AT_EPOCH><BSTAR>0</BSTAR><MEAN_MOTION_DOT>-.1E-6</MEAN_MOTION_DOT><MEAN_MOTION_DDOT>0</MEAN_MOTION_DDOT></tleParameters></data></segment></body></omm>

</ndm>
