EUTELSAT 21B            
1 38992U 12062B   26011.16882858  .00000145  00000+0  00000+0 0  9996
2 38992   0.0723  25.5765 0003125 270.3187 257.1456  1.00273034 48253
EUTELSAT 70B            
1 39020U 12069A   26011.26553083 -.00000028  00000+0  00000+0 0  9993
2 39020   0.0616 351.8431 0003782 275.8397   9.1710  1.00270880 47932
EUTELSAT 117 WEST A     
1 39122U 13012A   26011.23918257  .00000002  00000+0  00000+0 0  9991
2 39122   0.0366 287.6777 0002866   9.8026 142.5525  1.00271275 46857
EUTELSAT 7B             
1 39163U 13022A   26011.16596857  .00000063  00000+0  00000+0 0  9994
2 39163   0.0661  10.9457 0005497 321.6695 204.7978  1.00273327 46372
EXPRESS-AT1             
1 39612U 14010A   26011.24700241  .00000093  00000+0  00000+0 0  9997
2 39612   0.0308 236.1482 0000223  67.6611 311.8736  1.00275689 43244
EXPRESS-AT2             
1 39613U 14010B   26011.26364251 -.00000266  00000+0  00000+0 0  9990
2 39613   0.0162   8.4261 0000999 271.6795  65.4158  1.00271320 42920
EUTELSAT 3B             
1 39773U 14030A   26011.16518855  .00000034  00000+0  00000+0 0  9991
2 39773   0.0609 352.4478 0003508 250.5012 290.2807  1.00270689 42490
EUTELSAT 115 WEST B     
1 40425U 15010B   26011.23734990 -.00000010  00000+0  00000+0 0  9999
2 40425   0.0042 169.6780 0000195  52.4710 219.1396  1.00272474 39813
